[{"OBJECT_NAME":"O3B FM20","OBJECT_ID":"2019-020A","EPOCH":"2026-03-28T20:32:36.194208","MEAN_MOTION":5.00115487,"ECCENTRICITY":0.0002697,"INCLINATION":0.0528,"RA_OF_ASC_NODE":0.8112,"ARG_OF_PERICENTER":355.2694,"MEAN_ANOMALY":3.9126,"EPHEMERIS_TYPE":0,"CLASSIFICATION_TYPE":"U","NORAD_CAT_ID":44112,"ELEMENT_SET_NO":999,"REV_AT_EPOCH":12755,"BSTAR":0,"MEAN_MOTION_DOT":-2.9e-7,"MEAN_MOTION_DDOT":0},{"OBJECT_NAME":"O3B FM19","OBJECT_ID":"2019-020B","EPOCH":"2026-03-29T01:59:29.476320","MEAN_MOTION":5.00115272,"ECCENTRICITY":0.0004062,"INCLINATION":0.0579,"RA_OF_ASC_NODE":352.9847,"ARG_OF_PERICENTER":13.0204,"MEAN_ANOMALY":353.9951,"EPHEMERIS_TYPE":0,"CLASSIFICATION_TYPE":"U","NORAD_CAT_ID":44113,"ELEMENT_SET_NO":999,"REV_AT_EPOCH":12743,"BSTAR":0,"MEAN_MOTION_DOT":-2.9e-7,"MEAN_MOTION_DDOT":0},{"OBJECT_NAME":"O3B FM17","OBJECT_ID":"2019-020C","EPOCH":"2026-03-28T23:06:56.232576","MEAN_MOTION":5.00115428,"ECCENTRICITY":0.0002671,"INCLINATION":0.0363,"RA_OF_ASC_NODE":346.8044,"ARG_OF_PERICENTER":10.9157,"MEAN_ANOMALY":2.274,"EPHEMERIS_TYPE":0,"CLASSIFICATION_TYPE":"U","NORAD_CAT_ID":44114,"ELEMENT_SET_NO":999,"REV_AT_EPOCH":12751,"BSTAR":0,"MEAN_MOTION_DOT":-2.9e-7,"MEAN_MOTION_DDOT":0},{"OBJECT_NAME":"O3B FM18","OBJECT_ID":"2019-020D","EPOCH":"2026-03-29T02:37:27.407136","MEAN_MOTION":5.00115273,"ECCENTRICITY":0.0002729,"INCLINATION":0.0531,"RA_OF_ASC_NODE":0.9767,"ARG_OF_PERICENTER":6.3261,"MEAN_ANOMALY":352.6965,"EPHEMERIS_TYPE":0,"CLASSIFICATION_TYPE":"U","NORAD_CAT_ID":44115,"ELEMENT_SET_NO":999,"REV_AT_EPOCH":12764,"BSTAR":0,"MEAN_MOTION_DOT":-2.9e-7,"MEAN_MOTION_DDOT":0},{"OBJECT_NAME":"SALSAT","OBJECT_ID":"2020-068K","EPOCH":"2026-03-28T23:41:11.718816","MEAN_MOTION":15.28549734,"ECCENTRICITY":0.0008782,"INCLINATION":97.8861,"RA_OF_ASC_NODE":86.2455,"ARG_OF_PERICENTER":214.9729,"MEAN_ANOMALY":145.0934,"EPHEMERIS_TYPE":0,"CLASSIFICATION_TYPE":"U","NORAD_CAT_ID":46495,"ELEMENT_SET_NO":999,"REV_AT_EPOCH":30310,"BSTAR":0.00036891,"MEAN_MOTION_DOT":0.00010179,"MEAN_MOTION_DDOT":0},{"OBJECT_NAME":"O3B MPOWER F1","OBJECT_ID":"2022-174A","EPOCH":"2026-03-29T02:54:00.588096","MEAN_MOTION":5.00114848,"ECCENTRICITY":0.0005553,"INCLINATION":0.0627,"RA_OF_ASC_NODE":349.5108,"ARG_OF_PERICENTER":36.3314,"MEAN_ANOMALY":214.6654,"EPHEMERIS_TYPE":0,"CLASSIFICATION_TYPE":"U","NORAD_CAT_ID":54755,"ELEMENT_SET_NO":999,"REV_AT_EPOCH":6135,"BSTAR":0,"MEAN_MOTION_DOT":-2.9e-7,"MEAN_MOTION_DDOT":0},{"OBJECT_NAME":"O3B MPOWER F2","OBJECT_ID":"2022-174B","EPOCH":"2026-03-28T22:53:41.802720","MEAN_MOTION":5.00115541,"ECCENTRICITY":0.0005954,"INCLINATION":0.06,"RA_OF_ASC_NODE":346.6653,"ARG_OF_PERICENTER":19.4223,"MEAN_ANOMALY":353.9149,"EPHEMERIS_TYPE":0,"CLASSIFICATION_TYPE":"U","NORAD_CAT_ID":54756,"ELEMENT_SET_NO":999,"REV_AT_EPOCH":6143,"BSTAR":0,"MEAN_MOTION_DOT":-2.9e-7,"MEAN_MOTION_DDOT":0},{"OBJECT_NAME":"O3B MPOWER F4","OBJECT_ID":"2023-059A","EPOCH":"2026-03-29T00:26:21.304032","MEAN_MOTION":5.00116079,"ECCENTRICITY":0.0006951,"INCLINATION":0.0637,"RA_OF_ASC_NODE":5.0421,"ARG_OF_PERICENTER":16.8743,"MEAN_ANOMALY":338.1086,"EPHEMERIS_TYPE":0,"CLASSIFICATION_TYPE":"U","NORAD_CAT_ID":56367,"ELEMENT_SET_NO":999,"REV_AT_EPOCH":5459,"BSTAR":0,"MEAN_MOTION_DOT":-2.9e-7,"MEAN_MOTION_DDOT":0},{"OBJECT_NAME":"O3B MPOWER F3","OBJECT_ID":"2023-059B","EPOCH":"2026-03-29T01:14:19.045248","MEAN_MOTION":5.00116681,"ECCENTRICITY":0.0006574,"INCLINATION":0.0649,"RA_OF_ASC_NODE":5.0836,"ARG_OF_PERICENTER":6.4527,"MEAN_ANOMALY":348.4742,"EPHEMERIS_TYPE":0,"CLASSIFICATION_TYPE":"U","NORAD_CAT_ID":56368,"ELEMENT_SET_NO":999,"REV_AT_EPOCH":5071,"BSTAR":0,"MEAN_MOTION_DOT":-2.9e-7,"MEAN_MOTION_DDOT":0}]
